<map id="G" name="G">
<area shape="rect" id="node3" href="$class_moon_illum_sim_1_1_spacecraft.html#a6ea27428ef4cb4372377409eb87aad07" title="MoonIllumSim.Spacecraft.getEpoch" alt="" coords="413,5,643,32"/>
<area shape="rect" id="node7" href="$class_moon_illum_sim_1_1_spacecraft.html#a23c8cd11493576a8f8d6193864b84f04" title="MoonIllumSim.Spacecraft.getEpochAsUTCString" alt="" coords="376,56,680,83"/>
<area shape="rect" id="node13" href="$class_moon_illum_sim_1_1_spacecraft.html#af16a6e7fd5935b5b2b2b1541549ac48b" title="MoonIllumSim.Spacecraft.getSemiMajorAxis" alt="" coords="388,107,668,133"/>
<area shape="rect" id="node17" href="$class_moon_illum_sim_1_1_spacecraft.html#a2256946fb3d51da8e088f7448d99a9bf" title="MoonIllumSim.Spacecraft.getEccentricity" alt="" coords="397,157,659,184"/>
<area shape="rect" id="node21" href="$class_moon_illum_sim_1_1tools.html#af569647d872eb2cbb7f55b57dce1fc61" title="MoonIllumSim.tools.rad2deg" alt="" coords="435,208,621,235"/>
<area shape="rect" id="node23" href="$class_moon_illum_sim_1_1_spacecraft.html#ac4b34e17a4634041346568e0e7f5a67a" title="MoonIllumSim.Spacecraft.getArgumentOfPeriapsis" alt="" coords="371,259,685,285"/>
<area shape="rect" id="node27" href="$class_moon_illum_sim_1_1_spacecraft.html#a5ba5c614ae4fe54b66ff97c72d866523" title="MoonIllumSim.Spacecraft.getLongOfAscNode" alt="" coords="385,309,671,336"/>
<area shape="rect" id="node31" href="$class_moon_illum_sim_1_1_spacecraft.html#a82af95745020fbaf13be219a45bfa121" title="MoonIllumSim.Spacecraft.getInclination" alt="" coords="403,360,653,387"/>
<area shape="rect" id="node35" href="$class_moon_illum_sim_1_1_spacecraft.html#a815de2bb9f3af5c9adcbe1602ef1c4bf" title="MoonIllumSim.Spacecraft.getMeanAnomalyAtEpoch" alt="" coords="365,411,691,437"/>
<area shape="rect" id="node39" href="$class_moon_illum_sim_1_1_spacecraft.html#a0ee347888b1279d2acc3577276c7e9ec" title="MoonIllumSim.Spacecraft.isOrientationGiven" alt="" coords="389,461,667,488"/>
<area shape="rect" id="node41" href="$class_moon_illum_sim_1_1_spacecraft.html#a473675acbba070610b6bfe99d13b608d" title="MoonIllumSim.Spacecraft.getInitialOrientation" alt="" coords="385,512,671,539"/>
<area shape="rect" id="node43" href="$class_moon_illum_sim_1_1_quaternion.html#ab18c48034f080575fba268f8e6ea25ad" title="MoonIllumSim.Quaternion.r" alt="" coords="439,563,617,589"/>
<area shape="rect" id="node45" href="$class_moon_illum_sim_1_1_quaternion.html#a642544f49b27c250fbd85e8f8d93f22c" title="MoonIllumSim.Quaternion.v" alt="" coords="438,613,618,640"/>
<area shape="rect" id="node47" href="$class_moon_illum_sim_1_1_vector3_d.html#af338ec19c1668b164b97913b58de45c1" title="MoonIllumSim.Vector3D.x" alt="" coords="441,664,615,691"/>
<area shape="rect" id="node49" href="$class_moon_illum_sim_1_1_vector3_d.html#aae10713e427415f901fc9ca595a48e14" title="MoonIllumSim.Vector3D.y" alt="" coords="441,715,615,741"/>
<area shape="rect" id="node51" href="$class_moon_illum_sim_1_1_vector3_d.html#a04100b67a9c06e8f0268d7e509895555" title="MoonIllumSim.Vector3D.z" alt="" coords="441,765,615,792"/>
<area shape="rect" id="node53" href="$class_moon_illum_sim_1_1_spacecraft.html#ab241e3ee472d72d754348d8434353f06" title="MoonIllumSim.Spacecraft.getOrientationTransition" alt="" coords="373,816,683,843"/>
<area shape="rect" id="node55" href="$class_moon_illum_sim_1_1_simulation.html#a1b54aed08c585d1d57f813baba45ad86" title="MoonIllumSim.Simulation.getSimulationTime" alt="" coords="388,867,668,893"/>
<area shape="rect" id="node57" href="$class_moon_illum_sim_1_1_simulation.html#a55cc196f2532bee57e95d90871a5c19e" title="MoonIllumSim.Simulation.getSimulationTimesAsUTCString" alt="" coords="739,703,1101,729"/>
<area shape="rect" id="node60" href="$class_moon_illum_sim_1_1_simulation.html#ac82f305b8d1789be99cb77d189795bf9" title="MoonIllumSim.Simulation.getPatternRepoPath" alt="" coords="383,968,673,995"/>
<area shape="rect" id="node62" href="$class_moon_illum_sim_1_1_simulation.html#a117cdbc39982d4410cb7131115a44e0a" title="MoonIllumSim.Simulation.getPOVPath" alt="" coords="405,1019,651,1045"/>
<area shape="rect" id="node64" href="$class_moon_illum_sim_1_1_simulation.html#ad969964a75f2355111fda979cf8e7c4e" title="MoonIllumSim.Simulation.getOutputPath" alt="" coords="399,1069,657,1096"/>
<area shape="rect" id="node66" href="$class_moon_illum_sim_1_1_simulation.html#a2f5b36b64fa30657fe477880a3314e4d" title="MoonIllumSim.Simulation.getFOV" alt="" coords="419,1120,637,1147"/>
<area shape="rect" id="node68" href="$class_moon_illum_sim_1_1_simulation.html#a547ce9b6da43672149e779c8231c031c" title="MoonIllumSim.Simulation.getWidth" alt="" coords="415,1171,641,1197"/>
<area shape="rect" id="node70" href="$class_moon_illum_sim_1_1_simulation.html#a437c650f9b49fcf58c90cc873828ebdf" title="MoonIllumSim.Simulation.getHeight" alt="" coords="414,1221,642,1248"/>
<area shape="rect" id="node72" href="$class_moon_illum_sim_1_1_simulation.html#a2bfc3728addfa3f308785318bb4d71a7" title="MoonIllumSim.Simulation.getRes" alt="" coords="421,1272,635,1299"/>
<area shape="rect" id="node74" href="$class_moon_illum_sim_1_1tools.html#a3e85d1bbb9c28c6818001c03e2c76ffd" title="MoonIllumSim.tools.getSPICEVersion" alt="" coords="407,1323,649,1349"/>
<area shape="rect" id="node5" href="$class_moon_illum_sim_1_1_kepler_orbit.html#ab4bde2a78ea11837882305459f47928d" title="MoonIllumSim.KeplerOrbit.getEpoch" alt="" coords="804,5,1036,32"/>
<area shape="rect" id="node9" href="$class_moon_illum_sim_1_1_kepler_orbit.html#a2c6b49ab5bd7a1b3bad6641927c63e0a" title="MoonIllumSim.KeplerOrbit.getEpochAsUTCString" alt="" coords="767,56,1073,83"/>
<area shape="rect" id="node11" href="$class_moon_illum_sim_1_1tools.html#a278f3f3c3322df6c8f04c9c1e87ee041" title="MoonIllumSim.tools.MJDtoUTC" alt="" coords="1149,272,1352,299"/>
<area shape="rect" id="node15" href="$class_moon_illum_sim_1_1_kepler_orbit.html#a866be39cdfbd3d5e1996ea9931d00b67" title="MoonIllumSim.KeplerOrbit.getSemiMajorAxis" alt="" coords="779,107,1061,133"/>
<area shape="rect" id="node19" href="$class_moon_illum_sim_1_1_kepler_orbit.html#abe71a9f1849f8ad03340db439d3f2663" title="MoonIllumSim.KeplerOrbit.getEccentricity" alt="" coords="788,157,1052,184"/>
<area shape="rect" id="node25" href="$class_moon_illum_sim_1_1_kepler_orbit.html#ad8f1ed7466bda5b171afabb1f1c98657" title="MoonIllumSim.KeplerOrbit.getArgumentOfPeriapsis" alt="" coords="761,259,1079,285"/>
<area shape="rect" id="node29" href="$class_moon_illum_sim_1_1_kepler_orbit.html#a39e61f4436fdc715c245d8a8dc725f3f" title="MoonIllumSim.KeplerOrbit.getLongOfAscNode" alt="" coords="775,309,1065,336"/>
<area shape="rect" id="node33" href="$class_moon_illum_sim_1_1_kepler_orbit.html#a78bd89beed743f73dac7c9f8e39fe143" title="MoonIllumSim.KeplerOrbit.getInclination" alt="" coords="793,360,1047,387"/>
<area shape="rect" id="node37" href="$class_moon_illum_sim_1_1_kepler_orbit.html#ab97d35926aa4bfb854417db006a3dfa4" title="MoonIllumSim.KeplerOrbit.getMeanAnomalyAtEpoch" alt="" coords="756,411,1084,437"/>
</map>
